; Slightly oval footprint: 28x22 mm, step 2 mm
; W/H: 28x22 mm, step: 2.0 mm
; Layers: Z0.20 / Z0.40, orthogonal cross-hatch
; Aim: compact + fine step = less spill past wound after mesh fit

G21
G90
M82
G92 E0

G0 F6000 X0 Y0 Z5

; ----- Layer 1 (Z = 0.20), along X -----
G0 F6000 X0 Y0 Z0.20
G1 F1500 X28 Y0.0 E1.1200
G0 F6000 X0 Y2.0
G1 F1500 X28 Y2.0 E2.2400
G0 F6000 X0 Y4.0
G1 F1500 X28 Y4.0 E3.3600
G0 F6000 X0 Y6.0
G1 F1500 X28 Y6.0 E4.4800
G0 F6000 X0 Y8.0
G1 F1500 X28 Y8.0 E5.6000
G0 F6000 X0 Y10.0
G1 F1500 X28 Y10.0 E6.7200
G0 F6000 X0 Y12.0
G1 F1500 X28 Y12.0 E7.8400
G0 F6000 X0 Y14.0
G1 F1500 X28 Y14.0 E8.9600
G0 F6000 X0 Y16.0
G1 F1500 X28 Y16.0 E10.0800
G0 F6000 X0 Y18.0
G1 F1500 X28 Y18.0 E11.2000
G0 F6000 X0 Y20.0
G1 F1500 X28 Y20.0 E12.3200
G0 F6000 X0 Y22.0
G1 F1500 X28 Y22.0 E13.4400

; ----- Layer 1 (Z = 0.20), along Y -----
G0 F6000 X0 Y0
G1 F1500 X0.0 Y22 E14.3200
G0 F6000 X2.0 Y0
G1 F1500 X2.0 Y22 E15.2000
G0 F6000 X4.0 Y0
G1 F1500 X4.0 Y22 E16.0800
G0 F6000 X6.0 Y0
G1 F1500 X6.0 Y22 E16.9600
G0 F6000 X8.0 Y0
G1 F1500 X8.0 Y22 E17.8400
G0 F6000 X10.0 Y0
G1 F1500 X10.0 Y22 E18.7200
G0 F6000 X12.0 Y0
G1 F1500 X12.0 Y22 E19.6000
G0 F6000 X14.0 Y0
G1 F1500 X14.0 Y22 E20.4800
G0 F6000 X16.0 Y0
G1 F1500 X16.0 Y22 E21.3600
G0 F6000 X18.0 Y0
G1 F1500 X18.0 Y22 E22.2400
G0 F6000 X20.0 Y0
G1 F1500 X20.0 Y22 E23.1200
G0 F6000 X22.0 Y0
G1 F1500 X22.0 Y22 E24.0000
G0 F6000 X24.0 Y0
G1 F1500 X24.0 Y22 E24.8800
G0 F6000 X26.0 Y0
G1 F1500 X26.0 Y22 E25.7600
G0 F6000 X28.0 Y0
G1 F1500 X28.0 Y22 E26.6400

; ----- Layer 2 (Z = 0.40), along Y -----
G0 F6000 X0 Y0 Z0.40
G1 F1500 X0.0 Y22 E27.5200
G0 F6000 X2.0 Y0
G1 F1500 X2.0 Y22 E28.4000
G0 F6000 X4.0 Y0
G1 F1500 X4.0 Y22 E29.2800
G0 F6000 X6.0 Y0
G1 F1500 X6.0 Y22 E30.1600
G0 F6000 X8.0 Y0
G1 F1500 X8.0 Y22 E31.0400
G0 F6000 X10.0 Y0
G1 F1500 X10.0 Y22 E31.9200
G0 F6000 X12.0 Y0
G1 F1500 X12.0 Y22 E32.8000
G0 F6000 X14.0 Y0
G1 F1500 X14.0 Y22 E33.6800
G0 F6000 X16.0 Y0
G1 F1500 X16.0 Y22 E34.5600
G0 F6000 X18.0 Y0
G1 F1500 X18.0 Y22 E35.4400
G0 F6000 X20.0 Y0
G1 F1500 X20.0 Y22 E36.3200
G0 F6000 X22.0 Y0
G1 F1500 X22.0 Y22 E37.2000
G0 F6000 X24.0 Y0
G1 F1500 X24.0 Y22 E38.0800
G0 F6000 X26.0 Y0
G1 F1500 X26.0 Y22 E38.9600
G0 F6000 X28.0 Y0
G1 F1500 X28.0 Y22 E39.8400

; ----- Layer 2 (Z = 0.40), along X -----
G0 F6000 X0 Y0
G1 F1500 X28 Y0.0 E40.9600
G0 F6000 X0 Y2.0
G1 F1500 X28 Y2.0 E42.0800
G0 F6000 X0 Y4.0
G1 F1500 X28 Y4.0 E43.2000
G0 F6000 X0 Y6.0
G1 F1500 X28 Y6.0 E44.3200
G0 F6000 X0 Y8.0
G1 F1500 X28 Y8.0 E45.4400
G0 F6000 X0 Y10.0
G1 F1500 X28 Y10.0 E46.5600
G0 F6000 X0 Y12.0
G1 F1500 X28 Y12.0 E47.6800
G0 F6000 X0 Y14.0
G1 F1500 X28 Y14.0 E48.8000
G0 F6000 X0 Y16.0
G1 F1500 X28 Y16.0 E49.9200
G0 F6000 X0 Y18.0
G1 F1500 X28 Y18.0 E51.0400
G0 F6000 X0 Y20.0
G1 F1500 X28 Y20.0 E52.1600
G0 F6000 X0 Y22.0
G1 F1500 X28 Y22.0 E53.2800

G0 F6000 Z5
G92 E0
