; Wound-fit grid: denser hatch for curved wound surface
; XY: 42x36 mm, step: 3 mm
; Layers: Z0.20 / Z0.40, cross-hatch (offset per layer)
; Extrusion scaled ~ 0.0400 E/mm (~same as marker test grids)

G21
G90
M82
G92 E0

G0 F6000 X0 Y0 Z5

; ----- Layer 1 (Z = 0.20), along X -----
G0 F6000 X0 Y0 Z0.20
G0 F6000 X0 Y0.000
G1 F1500 X42.000 Y0.000 E1.6800
G0 F6000 X0 Y3.000
G1 F1500 X42.000 Y3.000 E3.3600
G0 F6000 X0 Y6.000
G1 F1500 X42.000 Y6.000 E5.0400
G0 F6000 X0 Y9.000
G1 F1500 X42.000 Y9.000 E6.7200
G0 F6000 X0 Y12.000
G1 F1500 X42.000 Y12.000 E8.4000
G0 F6000 X0 Y15.000
G1 F1500 X42.000 Y15.000 E10.0800
G0 F6000 X0 Y18.000
G1 F1500 X42.000 Y18.000 E11.7600
G0 F6000 X0 Y21.000
G1 F1500 X42.000 Y21.000 E13.4400
G0 F6000 X0 Y24.000
G1 F1500 X42.000 Y24.000 E15.1200
G0 F6000 X0 Y27.000
G1 F1500 X42.000 Y27.000 E16.8000
G0 F6000 X0 Y30.000
G1 F1500 X42.000 Y30.000 E18.4800
G0 F6000 X0 Y33.000
G1 F1500 X42.000 Y33.000 E20.1600
G0 F6000 X0 Y36.000
G1 F1500 X42.000 Y36.000 E21.8400

; ----- Layer 1 (Z = 0.20), along Y -----
G0 F6000 X0 Y0
G1 F1500 X0.000 Y36.000 E23.2800
G0 F6000 X3.000 Y0
G1 F1500 X3.000 Y36.000 E24.7200
G0 F6000 X6.000 Y0
G1 F1500 X6.000 Y36.000 E26.1600
G0 F6000 X9.000 Y0
G1 F1500 X9.000 Y36.000 E27.6000
G0 F6000 X12.000 Y0
G1 F1500 X12.000 Y36.000 E29.0400
G0 F6000 X15.000 Y0
G1 F1500 X15.000 Y36.000 E30.4800
G0 F6000 X18.000 Y0
G1 F1500 X18.000 Y36.000 E31.9200
G0 F6000 X21.000 Y0
G1 F1500 X21.000 Y36.000 E33.3600
G0 F6000 X24.000 Y0
G1 F1500 X24.000 Y36.000 E34.8000
G0 F6000 X27.000 Y0
G1 F1500 X27.000 Y36.000 E36.2400
G0 F6000 X30.000 Y0
G1 F1500 X30.000 Y36.000 E37.6800
G0 F6000 X33.000 Y0
G1 F1500 X33.000 Y36.000 E39.1200
G0 F6000 X36.000 Y0
G1 F1500 X36.000 Y36.000 E40.5600
G0 F6000 X39.000 Y0
G1 F1500 X39.000 Y36.000 E42.0000
G0 F6000 X42.000 Y0
G1 F1500 X42.000 Y36.000 E43.4400

; ----- Layer 2 (Z = 0.40), along Y -----
G0 F6000 X0 Y0 Z0.40
G1 F1500 X0.000 Y36.000 E44.8800
G0 F6000 X3.000 Y0
G1 F1500 X3.000 Y36.000 E46.3200
G0 F6000 X6.000 Y0
G1 F1500 X6.000 Y36.000 E47.7600
G0 F6000 X9.000 Y0
G1 F1500 X9.000 Y36.000 E49.2000
G0 F6000 X12.000 Y0
G1 F1500 X12.000 Y36.000 E50.6400
G0 F6000 X15.000 Y0
G1 F1500 X15.000 Y36.000 E52.0800
G0 F6000 X18.000 Y0
G1 F1500 X18.000 Y36.000 E53.5200
G0 F6000 X21.000 Y0
G1 F1500 X21.000 Y36.000 E54.9600
G0 F6000 X24.000 Y0
G1 F1500 X24.000 Y36.000 E56.4000
G0 F6000 X27.000 Y0
G1 F1500 X27.000 Y36.000 E57.8400
G0 F6000 X30.000 Y0
G1 F1500 X30.000 Y36.000 E59.2800
G0 F6000 X33.000 Y0
G1 F1500 X33.000 Y36.000 E60.7200
G0 F6000 X36.000 Y0
G1 F1500 X36.000 Y36.000 E62.1600
G0 F6000 X39.000 Y0
G1 F1500 X39.000 Y36.000 E63.6000
G0 F6000 X42.000 Y0
G1 F1500 X42.000 Y36.000 E65.0400

; ----- Layer 2 (Z = 0.40), along X -----
G0 F6000 X0 Y0
G0 F6000 X0 Y0.000
G1 F1500 X42.000 Y0.000 E66.7200
G0 F6000 X0 Y3.000
G1 F1500 X42.000 Y3.000 E68.4000
G0 F6000 X0 Y6.000
G1 F1500 X42.000 Y6.000 E70.0800
G0 F6000 X0 Y9.000
G1 F1500 X42.000 Y9.000 E71.7600
G0 F6000 X0 Y12.000
G1 F1500 X42.000 Y12.000 E73.4400
G0 F6000 X0 Y15.000
G1 F1500 X42.000 Y15.000 E75.1200
G0 F6000 X0 Y18.000
G1 F1500 X42.000 Y18.000 E76.8000
G0 F6000 X0 Y21.000
G1 F1500 X42.000 Y21.000 E78.4800
G0 F6000 X0 Y24.000
G1 F1500 X42.000 Y24.000 E80.1600
G0 F6000 X0 Y27.000
G1 F1500 X42.000 Y27.000 E81.8400
G0 F6000 X0 Y30.000
G1 F1500 X42.000 Y30.000 E83.5200
G0 F6000 X0 Y33.000
G1 F1500 X42.000 Y33.000 E85.2000
G0 F6000 X0 Y36.000
G1 F1500 X42.000 Y36.000 E86.8800

G0 F6000 Z5
G92 E0
