; Compact wound grid: 24x24 mm, step 2 mm
; W/H: 24x24 mm, step: 2.0 mm
; Layers: Z0.20 / Z0.40, orthogonal cross-hatch
; Aim: compact + fine step = less spill past wound after mesh fit

G21
G90
M82
G92 E0

G0 F6000 X0 Y0 Z5

; ----- Layer 1 (Z = 0.20), along X -----
G0 F6000 X0 Y0 Z0.20
G1 F1500 X24 Y0.0 E0.9600
G0 F6000 X0 Y2.0
G1 F1500 X24 Y2.0 E1.9200
G0 F6000 X0 Y4.0
G1 F1500 X24 Y4.0 E2.8800
G0 F6000 X0 Y6.0
G1 F1500 X24 Y6.0 E3.8400
G0 F6000 X0 Y8.0
G1 F1500 X24 Y8.0 E4.8000
G0 F6000 X0 Y10.0
G1 F1500 X24 Y10.0 E5.7600
G0 F6000 X0 Y12.0
G1 F1500 X24 Y12.0 E6.7200
G0 F6000 X0 Y14.0
G1 F1500 X24 Y14.0 E7.6800
G0 F6000 X0 Y16.0
G1 F1500 X24 Y16.0 E8.6400
G0 F6000 X0 Y18.0
G1 F1500 X24 Y18.0 E9.6000
G0 F6000 X0 Y20.0
G1 F1500 X24 Y20.0 E10.5600
G0 F6000 X0 Y22.0
G1 F1500 X24 Y22.0 E11.5200
G0 F6000 X0 Y24.0
G1 F1500 X24 Y24.0 E12.4800

; ----- Layer 1 (Z = 0.20), along Y -----
G0 F6000 X0 Y0
G1 F1500 X0.0 Y24 E13.4400
G0 F6000 X2.0 Y0
G1 F1500 X2.0 Y24 E14.4000
G0 F6000 X4.0 Y0
G1 F1500 X4.0 Y24 E15.3600
G0 F6000 X6.0 Y0
G1 F1500 X6.0 Y24 E16.3200
G0 F6000 X8.0 Y0
G1 F1500 X8.0 Y24 E17.2800
G0 F6000 X10.0 Y0
G1 F1500 X10.0 Y24 E18.2400
G0 F6000 X12.0 Y0
G1 F1500 X12.0 Y24 E19.2000
G0 F6000 X14.0 Y0
G1 F1500 X14.0 Y24 E20.1600
G0 F6000 X16.0 Y0
G1 F1500 X16.0 Y24 E21.1200
G0 F6000 X18.0 Y0
G1 F1500 X18.0 Y24 E22.0800
G0 F6000 X20.0 Y0
G1 F1500 X20.0 Y24 E23.0400
G0 F6000 X22.0 Y0
G1 F1500 X22.0 Y24 E24.0000
G0 F6000 X24.0 Y0
G1 F1500 X24.0 Y24 E24.9600

; ----- Layer 2 (Z = 0.40), along Y -----
G0 F6000 X0 Y0 Z0.40
G1 F1500 X0.0 Y24 E25.9200
G0 F6000 X2.0 Y0
G1 F1500 X2.0 Y24 E26.8800
G0 F6000 X4.0 Y0
G1 F1500 X4.0 Y24 E27.8400
G0 F6000 X6.0 Y0
G1 F1500 X6.0 Y24 E28.8000
G0 F6000 X8.0 Y0
G1 F1500 X8.0 Y24 E29.7600
G0 F6000 X10.0 Y0
G1 F1500 X10.0 Y24 E30.7200
G0 F6000 X12.0 Y0
G1 F1500 X12.0 Y24 E31.6800
G0 F6000 X14.0 Y0
G1 F1500 X14.0 Y24 E32.6400
G0 F6000 X16.0 Y0
G1 F1500 X16.0 Y24 E33.6000
G0 F6000 X18.0 Y0
G1 F1500 X18.0 Y24 E34.5600
G0 F6000 X20.0 Y0
G1 F1500 X20.0 Y24 E35.5200
G0 F6000 X22.0 Y0
G1 F1500 X22.0 Y24 E36.4800
G0 F6000 X24.0 Y0
G1 F1500 X24.0 Y24 E37.4400

; ----- Layer 2 (Z = 0.40), along X -----
G0 F6000 X0 Y0
G1 F1500 X24 Y0.0 E38.4000
G0 F6000 X0 Y2.0
G1 F1500 X24 Y2.0 E39.3600
G0 F6000 X0 Y4.0
G1 F1500 X24 Y4.0 E40.3200
G0 F6000 X0 Y6.0
G1 F1500 X24 Y6.0 E41.2800
G0 F6000 X0 Y8.0
G1 F1500 X24 Y8.0 E42.2400
G0 F6000 X0 Y10.0
G1 F1500 X24 Y10.0 E43.2000
G0 F6000 X0 Y12.0
G1 F1500 X24 Y12.0 E44.1600
G0 F6000 X0 Y14.0
G1 F1500 X24 Y14.0 E45.1200
G0 F6000 X0 Y16.0
G1 F1500 X24 Y16.0 E46.0800
G0 F6000 X0 Y18.0
G1 F1500 X24 Y18.0 E47.0400
G0 F6000 X0 Y20.0
G1 F1500 X24 Y20.0 E48.0000
G0 F6000 X0 Y22.0
G1 F1500 X24 Y22.0 E48.9600
G0 F6000 X0 Y24.0
G1 F1500 X24 Y24.0 E49.9200

G0 F6000 Z5
G92 E0
